CCSDS_OMM_VERS = 2.0
CREATION_DATE  = 
ORIGINATOR     = 

OBJECT_NAME    = STARLINK-36222
OBJECT_ID      = 2025-298Y
CENTER_NAME    = EARTH
REF_FRAME      = TEME
TIME_SYSTEM    = UTC
MEAN_ELEMENT_THEORY = SGP/SGP4

EPOCH          = 2025-12-27T04:00:01.998720
MEAN_MOTION    = 15.73484938
ECCENTRICITY   = .0003719
INCLINATION    = 69.9984
RA_OF_ASC_NODE = 208.9089
ARG_OF_PERICENTER = 279.3230
MEAN_ANOMALY   = 137.1427

EPHEMERIS_TYPE = 0
CLASSIFICATION_TYPE = U
NORAD_CAT_ID   = 67097
ELEMENT_SET_NO = 999
REV_AT_EPOCH   = 323
BSTAR          = -.14319E-1
MEAN_MOTION_DOT = -.1760804E-1
MEAN_MOTION_DDOT = 0

CCSDS_OMM_VERS = 2.0
CREATION_DATE  = 
ORIGINATOR     = 

OBJECT_NAME    = STARLINK-36205
OBJECT_ID      = 2025-298Z
CENTER_NAME    = EARTH
REF_FRAME      = TEME
TIME_SYSTEM    = UTC
MEAN_ELEMENT_THEORY = SGP/SGP4

EPOCH          = 2025-12-27T04:00:01.998720
MEAN_MOTION    = 15.73477745
ECCENTRICITY   = .0003612
INCLINATION    = 69.9983
RA_OF_ASC_NODE = 208.9065
ARG_OF_PERICENTER = 278.8171
MEAN_ANOMALY   = 139.7391

EPHEMERIS_TYPE = 0
CLASSIFICATION_TYPE = U
NORAD_CAT_ID   = 67098
ELEMENT_SET_NO = 999
REV_AT_EPOCH   = 329
BSTAR          = -.14317E-1
MEAN_MOTION_DOT = -.176003E-1
MEAN_MOTION_DDOT = 0

CCSDS_OMM_VERS = 2.0
CREATION_DATE  = 
ORIGINATOR     = 

OBJECT_NAME    = STARLINK-36193
OBJECT_ID      = 2025-298AA
CENTER_NAME    = EARTH
REF_FRAME      = TEME
TIME_SYSTEM    = UTC
MEAN_ELEMENT_THEORY = SGP/SGP4

EPOCH          = 2025-12-27T04:00:01.998720
MEAN_MOTION    = 15.68917324
ECCENTRICITY   = .0003721
INCLINATION    = 69.9990
RA_OF_ASC_NODE = 208.9316
ARG_OF_PERICENTER = 275.3501
MEAN_ANOMALY   = 122.0737

EPHEMERIS_TYPE = 0
CLASSIFICATION_TYPE = U
NORAD_CAT_ID   = 67099
ELEMENT_SET_NO = 999
REV_AT_EPOCH   = 323
BSTAR          = -.24965E-1
MEAN_MOTION_DOT = -.2518074E-1
MEAN_MOTION_DDOT = 0

CCSDS_OMM_VERS = 2.0
CREATION_DATE  = 
ORIGINATOR     = 

OBJECT_NAME    = STARLINK-36215
OBJECT_ID      = 2025-298AB
CENTER_NAME    = EARTH
REF_FRAME      = TEME
TIME_SYSTEM    = UTC
MEAN_ELEMENT_THEORY = SGP/SGP4

EPOCH          = 2025-12-27T04:00:01.998720
MEAN_MOTION    = 15.73485342
ECCENTRICITY   = .0003614
INCLINATION    = 69.9982
RA_OF_ASC_NODE = 208.8998
ARG_OF_PERICENTER = 279.6588
MEAN_ANOMALY   = 144.4373

EPHEMERIS_TYPE = 0
CLASSIFICATION_TYPE = U
NORAD_CAT_ID   = 67100
ELEMENT_SET_NO = 999
REV_AT_EPOCH   = 329
BSTAR          = -.14282E-1
MEAN_MOTION_DOT = -.175669E-1
MEAN_MOTION_DDOT = 0

CCSDS_OMM_VERS = 2.0
CREATION_DATE  = 
ORIGINATOR     = 

OBJECT_NAME    = STARLINK-36200
OBJECT_ID      = 2025-298AC
CENTER_NAME    = EARTH
REF_FRAME      = TEME
TIME_SYSTEM    = UTC
MEAN_ELEMENT_THEORY = SGP/SGP4

EPOCH          = 2025-12-27T04:00:01.998720
MEAN_MOTION    = 15.73483528
ECCENTRICITY   = .0003644
INCLINATION    = 69.9989
RA_OF_ASC_NODE = 208.9046
ARG_OF_PERICENTER = 277.2201
MEAN_ANOMALY   = 143.1418

EPHEMERIS_TYPE = 0
CLASSIFICATION_TYPE = U
NORAD_CAT_ID   = 67101
ELEMENT_SET_NO = 999
REV_AT_EPOCH   = 329
BSTAR          = -.14321E-1
MEAN_MOTION_DOT = -.1760834E-1
MEAN_MOTION_DDOT = 0

CCSDS_OMM_VERS = 2.0
CREATION_DATE  = 
ORIGINATOR     = 

OBJECT_NAME    = STARLINK-36255
OBJECT_ID      = 2025-299A
CENTER_NAME    = EARTH
REF_FRAME      = TEME
TIME_SYSTEM    = UTC
MEAN_ELEMENT_THEORY = SGP/SGP4

EPOCH          = 2025-12-27T04:00:01.998720
MEAN_MOTION    = 15.76302738
ECCENTRICITY   = .0001924
INCLINATION    = 42.9986
RA_OF_ASC_NODE = 228.2891
ARG_OF_PERICENTER = 273.4991
MEAN_ANOMALY   = 55.4738

EPHEMERIS_TYPE = 0
CLASSIFICATION_TYPE = U
NORAD_CAT_ID   = 67102
ELEMENT_SET_NO = 999
REV_AT_EPOCH   = 312
BSTAR          = -.12506E-1
MEAN_MOTION_DOT = -.1784363E-1
MEAN_MOTION_DDOT = 0

CCSDS_OMM_VERS = 2.0
CREATION_DATE  = 
ORIGINATOR     = 

OBJECT_NAME    = STARLINK-36256
OBJECT_ID      = 2025-299B
CENTER_NAME    = EARTH
REF_FRAME      = TEME
TIME_SYSTEM    = UTC
MEAN_ELEMENT_THEORY = SGP/SGP4

EPOCH          = 2025-12-27T04:00:01.998720
MEAN_MOTION    = 15.76324468
ECCENTRICITY   = .0001756
INCLINATION    = 42.9984
RA_OF_ASC_NODE = 228.2860
ARG_OF_PERICENTER = 271.2805
MEAN_ANOMALY   = 59.1407

EPHEMERIS_TYPE = 0
CLASSIFICATION_TYPE = U
NORAD_CAT_ID   = 67103
ELEMENT_SET_NO = 999
REV_AT_EPOCH   = 312
BSTAR          = -.12514E-1
MEAN_MOTION_DOT = -.178665E-1
MEAN_MOTION_DDOT = 0

CCSDS_OMM_VERS = 2.0
CREATION_DATE  = 
ORIGINATOR     = 

OBJECT_NAME    = STARLINK-36258
OBJECT_ID      = 2025-299C
CENTER_NAME    = EARTH
REF_FRAME      = TEME
TIME_SYSTEM    = UTC
MEAN_ELEMENT_THEORY = SGP/SGP4

EPOCH          = 2025-12-27T04:00:01.998720
MEAN_MOTION    = 15.76332920
ECCENTRICITY   = .0001872
INCLINATION    = 42.9986
RA_OF_ASC_NODE = 228.2815
ARG_OF_PERICENTER = 276.9621
MEAN_ANOMALY   = 55.0378

EPHEMERIS_TYPE = 0
CLASSIFICATION_TYPE = U
NORAD_CAT_ID   = 67104
ELEMENT_SET_NO = 999
REV_AT_EPOCH   = 312
BSTAR          = -.12442E-1
MEAN_MOTION_DOT = -.1778415E-1
MEAN_MOTION_DDOT = 0

CCSDS_OMM_VERS = 2.0
CREATION_DATE  = 
ORIGINATOR     = 

OBJECT_NAME    = STARLINK-36261
OBJECT_ID      = 2025-299D
CENTER_NAME    = EARTH
REF_FRAME      = TEME
TIME_SYSTEM    = UTC
MEAN_ELEMENT_THEORY = SGP/SGP4

EPOCH          = 2025-12-27T04:00:01.998720
MEAN_MOTION    = 15.76357152
ECCENTRICITY   = .0001888
INCLINATION    = 42.9984
RA_OF_ASC_NODE = 228.2784
ARG_OF_PERICENTER = 273.3034
MEAN_ANOMALY   = 60.0899

EPHEMERIS_TYPE = 0
CLASSIFICATION_TYPE = U
NORAD_CAT_ID   = 67105
ELEMENT_SET_NO = 999
REV_AT_EPOCH   = 312
BSTAR          = -.12445E-1
MEAN_MOTION_DOT = -.1780496E-1
MEAN_MOTION_DDOT = 0

CCSDS_OMM_VERS = 2.0
CREATION_DATE  = 
ORIGINATOR     = 

OBJECT_NAME    = STARLINK-36259
OBJECT_ID      = 2025-299E
CENTER_NAME    = EARTH
REF_FRAME      = TEME
TIME_SYSTEM    = UTC
MEAN_ELEMENT_THEORY = SGP/SGP4

EPOCH          = 2025-12-27T04:00:01.998720
MEAN_MOTION    = 15.76380653
ECCENTRICITY   = .0001829
INCLINATION    = 42.9985
RA_OF_ASC_NODE = 228.2697
ARG_OF_PERICENTER = 266.1190
MEAN_ANOMALY   = 70.6789

EPHEMERIS_TYPE = 0
CLASSIFICATION_TYPE = U
NORAD_CAT_ID   = 67106
ELEMENT_SET_NO = 999
REV_AT_EPOCH   = 312
BSTAR          = -.12501E-1
MEAN_MOTION_DOT = -.1789042E-1
MEAN_MOTION_DDOT = 0

CCSDS_OMM_VERS = 2.0
CREATION_DATE  = 
ORIGINATOR     = 

OBJECT_NAME    = STARLINK-36196
OBJECT_ID      = 2025-299F
CENTER_NAME    = EARTH
REF_FRAME      = TEME
TIME_SYSTEM    = UTC
MEAN_ELEMENT_THEORY = SGP/SGP4

EPOCH          = 2025-12-27T04:00:01.998720
MEAN_MOTION    = 15.76369125
ECCENTRICITY   = .0001764
INCLINATION    = 42.9986
RA_OF_ASC_NODE = 228.2745
ARG_OF_PERICENTER = 266.9136
MEAN_ANOMALY   = 68.1170

EPHEMERIS_TYPE = 0
CLASSIFICATION_TYPE = U
NORAD_CAT_ID   = 67107
ELEMENT_SET_NO = 999
REV_AT_EPOCH   = 312
BSTAR          = -.12423E-1
MEAN_MOTION_DOT = -.1778456E-1
MEAN_MOTION_DDOT = 0

CCSDS_OMM_VERS = 2.0
CREATION_DATE  = 
ORIGINATOR     = 

OBJECT_NAME    = STARLINK-36208
OBJECT_ID      = 2025-299G
CENTER_NAME    = EARTH
REF_FRAME      = TEME
TIME_SYSTEM    = UTC
MEAN_ELEMENT_THEORY = SGP/SGP4

EPOCH          = 2025-12-27T04:00:01.998720
MEAN_MOTION    = 15.76386680
ECCENTRICITY   = .0001825
INCLINATION    = 42.9985
RA_OF_ASC_NODE = 228.2652
ARG_OF_PERICENTER = 265.9128
MEAN_ANOMALY   = 72.6409

EPHEMERIS_TYPE = 0
CLASSIFICATION_TYPE = U
NORAD_CAT_ID   = 67108
ELEMENT_SET_NO = 999
REV_AT_EPOCH   = 312
BSTAR          = -.1247E-1
MEAN_MOTION_DOT = -.178561E-1
MEAN_MOTION_DDOT = 0

CCSDS_OMM_VERS = 2.0
CREATION_DATE  = 
ORIGINATOR     = 

OBJECT_NAME    = STARLINK-35764
OBJECT_ID      = 2025-299H
CENTER_NAME    = EARTH
REF_FRAME      = TEME
TIME_SYSTEM    = UTC
MEAN_ELEMENT_THEORY = SGP/SGP4

EPOCH          = 2025-12-27T04:00:01.998720
MEAN_MOTION    = 15.76334584
ECCENTRICITY   = .0002198
INCLINATION    = 42.9984
RA_OF_ASC_NODE = 228.2606
ARG_OF_PERICENTER = 270.9451
MEAN_ANOMALY   = 69.5068

EPHEMERIS_TYPE = 0
CLASSIFICATION_TYPE = U
NORAD_CAT_ID   = 67109
ELEMENT_SET_NO = 999
REV_AT_EPOCH   = 302
BSTAR          = -.12021E-1
MEAN_MOTION_DOT = -.172569E-1
MEAN_MOTION_DDOT = 0

CCSDS_OMM_VERS = 2.0
CREATION_DATE  = 
ORIGINATOR     = 

OBJECT_NAME    = STARLINK-35781
OBJECT_ID      = 2025-299J
CENTER_NAME    = EARTH
REF_FRAME      = TEME
TIME_SYSTEM    = UTC
MEAN_ELEMENT_THEORY = SGP/SGP4

EPOCH          = 2025-12-27T04:00:01.998720
MEAN_MOTION    = 15.76394142
ECCENTRICITY   = .000171
INCLINATION    = 42.9987
RA_OF_ASC_NODE = 228.2516
ARG_OF_PERICENTER = 266.7447
MEAN_ANOMALY   = 77.3012

EPHEMERIS_TYPE = 0
CLASSIFICATION_TYPE = U
NORAD_CAT_ID   = 67110
ELEMENT_SET_NO = 999
REV_AT_EPOCH   = 308
BSTAR          = -.12407E-1
MEAN_MOTION_DOT = -.1778169E-1
MEAN_MOTION_DDOT = 0

CCSDS_OMM_VERS = 2.0
CREATION_DATE  = 
ORIGINATOR     = 

OBJECT_NAME    = STARLINK-35875
OBJECT_ID      = 2025-299K
CENTER_NAME    = EARTH
REF_FRAME      = TEME
TIME_SYSTEM    = UTC
MEAN_ELEMENT_THEORY = SGP/SGP4

EPOCH          = 2025-12-27T04:00:01.998720
MEAN_MOTION    = 15.76393888
ECCENTRICITY   = .000181
INCLINATION    = 42.9987
RA_OF_ASC_NODE = 228.2561
ARG_OF_PERICENTER = 267.3632
MEAN_ANOMALY   = 74.9092

EPHEMERIS_TYPE = 0
CLASSIFICATION_TYPE = U
NORAD_CAT_ID   = 67111
ELEMENT_SET_NO = 999
REV_AT_EPOCH   = 302
BSTAR          = -.12494E-1
MEAN_MOTION_DOT = -.1789077E-1
MEAN_MOTION_DDOT = 0

